FOSSASAT-2E20 (TAT-O)   
1 63003U 25009DN  26068.70855016  .00016337  00000+0  61863-3 0  9998
2 63003  97.3231 146.2859 0002189 347.5575  12.5610 15.26991080121314
STARLINK-35777          
1 66975U 25288S   26068.30416733  .00031837  00000+0  11605-2 0  9993
2 66975  43.0009  26.0425 0001264 270.6434  89.4272 15.27607847 15228
